[{"OBJECT_NAME":"STARLINK-31390","OBJECT_ID":"2024-027G","EPOCH":"2026-03-09T22:37:34.012128","MEAN_MOTION":15.30190577,"ECCENTRICITY":0.00011396,"INCLINATION":53.1605,"RA_OF_ASC_NODE":308.6904,"ARG_OF_PERICENTER":68.1697,"MEAN_ANOMALY":291.9425,"EPHEMERIS_TYPE":0,"CLASSIFICATION_TYPE":"U","NORAD_CAT_ID":58937,"ELEMENT_SET_NO":999,"REV_AT_EPOCH":11736,"BSTAR":4.5784865e-5,"MEAN_MOTION_DOT":9.97e-6,"MEAN_MOTION_DDOT":0},{"OBJECT_NAME":"HAWK-11C","OBJECT_ID":"2024-247E","EPOCH":"2026-03-09T12:17:35.407968","MEAN_MOTION":15.2884802,"ECCENTRICITY":0.00059001,"INCLINATION":45.0045,"RA_OF_ASC_NODE":114.8762,"ARG_OF_PERICENTER":329.704,"MEAN_ANOMALY":30.3502,"EPHEMERIS_TYPE":0,"CLASSIFICATION_TYPE":"U","NORAD_CAT_ID":62381,"ELEMENT_SET_NO":999,"REV_AT_EPOCH":6774,"BSTAR":0.00033290115,"MEAN_MOTION_DOT":9.223e-5,"MEAN_MOTION_DDOT":0}]
